OBJECT_NAME,OBJECT_ID,EPOCH,MEAN_MOTION,ECCENTRICITY,INCLINATION,RA_OF_ASC_NODE,ARG_OF_PERICENTER,MEAN_ANOMALY,EPHEMERIS_TYPE,CLASSIFICATION_TYPE,NORAD_CAT_ID,ELEMENT_SET_NO,REV_AT_EPOCH,BSTAR,MEAN_MOTION_DOT,MEAN_MOTION_DDOT
STARLINK-36318,2026-041J,2026-06-08T19:11:34.062720,15.34412609,.0001246,53.1605,344.8366,85.9552,274.1593,0,U,68048,999,1536,.88098E-3,.29518E-3,0
STARLINK-36885,2026-041K,2026-06-08T19:47:47.887584,15.34411180,.0001135,53.1609,344.2922,82.3196,277.7935,0,U,68049,999,1537,.64062E-3,.21337E-3,0
STARLINK-36945,2026-041L,2026-06-08T18:56:25.347264,15.34413442,.0001261,53.1605,344.7629,85.4404,274.6743,0,U,68050,999,1536,.87607E-3,.29352E-3,0
STARLINK-35911,2026-041M,2026-06-09T04:00:03.000096,15.34399239,.0001276,53.1587,344.8125,99.9697,346.4169,0,U,68051,999,580,-.6497E-3,-.22263E-3,0
STARLINK-35808,2026-041N,2026-06-08T19:12:14.933376,15.34429524,.0001405,53.1599,346.2624,77.2096,282.9064,0,U,68052,999,1534,.88263E-3,.29591E-3,0
STARLINK-36919,2026-041P,2026-06-09T04:00:03.000096,15.34404483,.000043,53.1589,344.8326,82.5126,352.2025,0,U,68053,999,571,-.59364E-3,-.20381E-3,0
STARLINK-36924,2026-041Q,2026-06-08T18:53:23.862336,15.34415484,.0001329,53.1607,344.7784,82.7445,277.3708,0,U,68054,999,1536,.10194E-2,.34241E-3,0
STARLINK-35998,2026-041R,2026-06-08T19:30:25.741152,15.34409572,.0001056,53.1600,346.3374,100.7765,259.3357,0,U,68055,999,1534,.68928E-3,.22991E-3,0
STARLINK-36845,2026-041S,2026-06-08T18:50:21.863328,15.34412919,.000127,53.1597,344.7386,70.4777,289.6363,0,U,68056,999,1536,.97844E-3,.3284E-3,0
STARLINK-36954,2026-041T,2026-06-08T18:32:10.768704,15.34408489,.0001115,53.1599,344.6652,80.3103,279.8026,0,U,68057,999,1536,.71661E-3,.23919E-3,0
STARLINK-36899,2026-041U,2026-06-08T18:54:04.236192,15.34419957,.0000874,53.1623,346.1933,66.1563,293.9531,0,U,68058,999,1534,.9846E-3,.33058E-3,0
STARLINK-36917,2026-041V,2026-06-08T19:02:28.979808,15.34409966,.0001261,53.1607,344.7957,81.9165,278.1981,0,U,68059,999,1536,.86901E-3,.29108E-3,0
STARLINK-36959,2026-041W,2026-06-08T19:53:51.626400,15.34412282,.0001314,53.1605,344.3128,73.2581,286.8566,0,U,68060,999,1537,.75353E-3,.25178E-3,0
STARLINK-36915,2026-041X,2026-06-08T19:23:33.323712,15.34416612,.0001037,53.1593,344.1700,89.4044,270.7078,0,U,68061,999,1537,.73601E-3,.24586E-3,0
STARLINK-36952,2026-041Y,2026-06-08T18:44:18.081312,15.34412435,.0001478,53.1611,344.7254,70.5858,289.5304,0,U,68062,999,1536,.90973E-3,.30498E-3,0
STARLINK-37000,2026-041Z,2026-06-08T19:08:32.407584,15.34410751,.0001378,53.1610,344.8294,89.5203,270.5957,0,U,68063,999,1536,.80106E-3,.26795E-3,0
STARLINK-36996,2026-041AA,2026-06-08T19:17:29.804352,15.34416887,.0001129,53.1607,344.1455,85.8750,274.2382,0,U,68064,999,1537,.90353E-3,.3029E-3,0
STARLINK-36836,2026-041AB,2026-06-08T01:09:24.098112,15.30764717,.00022896,53.1605,350.0823,107.3129,252.8123,0,U,68065,999,1522,.10008679E-1,.314361E-2,0
STARLINK-36976,2026-041AC,2026-06-08T19:29:37.216320,15.34414007,.0001401,53.1602,344.2012,79.0921,281.0239,0,U,68066,999,1537,.8419E-3,.28188E-3,0
STARLINK-36929,2026-041AD,2026-06-08T18:47:20.172768,15.34419262,.00015,53.1610,344.7433,79.7530,280.3641,0,U,68067,999,1536,.1114E-2,.37475E-3,0
STARLINK-36990,2026-041AE,2026-06-08T19:03:09.701856,15.34418756,.0001237,53.1606,346.2110,93.6477,266.4667,0,U,68068,999,1534,.10306E-2,.34626E-3,0
STARLINK-36766,2026-042A,2026-06-09T01:10:42.257280,15.34423233,.0001157,53.1590,113.6026,86.8253,273.2882,0,U,68069,999,1630,.67562E-3,.22536E-3,0
STARLINK-36823,2026-042B,2026-06-09T03:38:05.839008,15.34403778,.0001137,53.1580,110.6383,93.4389,266.6744,0,U,68070,999,1635,.44864E-3,.14814E-3,0
STARLINK-36970,2026-042C,2026-06-09T02:26:19.688064,15.34412322,.0000994,53.1575,113.2138,71.1817,288.9294,0,U,68071,999,1631,.65401E-3,.21793E-3,0
STARLINK-36972,2026-042D,2026-06-09T03:11:38.779872,15.34407817,.0001571,53.1588,112.6892,89.7218,270.3965,0,U,68072,999,1632,.80594E-3,.26959E-3,0
STARLINK-37074,2026-042E,2026-06-09T03:26:46.695264,15.34472178,.0001069,53.1583,112.7566,102.1309,257.9813,0,U,68073,999,1632,.18093E-2,.61397E-3,0
STARLINK-37045,2026-042F,2026-06-09T02:32:23.136576,15.34413119,.000157,53.1581,113.2534,137.5731,222.5393,0,U,68074,999,1631,.75533E-3,.2524E-3,0
STARLINK-37026,2026-042G,2026-06-09T01:07:41.405664,15.34412696,.00021,53.1585,113.5922,55.1928,304.9272,0,U,68075,999,1630,.71063E-3,.23719E-3,0
STARLINK-37023,2026-042H,2026-06-09T02:20:16.184256,15.34396558,.0001435,53.1582,113.1927,105.0981,255.0180,0,U,68076,999,1631,.30984E-3,.10105E-3,0
STARLINK-37036,2026-042J,2026-06-09T01:18:59.605056,15.34400168,.0001096,53.1605,111.4844,100.1906,259.9220,0,U,68077,999,1633,.51594E-3,.17095E-3,0
