STARLINK-36318          
1 68048U 26041J   26159.79969980  .00029518  00000+0  88098-3 0  9999
2 68048  53.1605 344.8366 0001246  85.9552 274.1593 15.34412609 15360
STARLINK-36885          
1 68049U 26041K   26159.82485981  .00021337  00000+0  64062-3 0  9994
2 68049  53.1609 344.2922 0001135  82.3196 277.7935 15.34411180 15372
STARLINK-36945          
1 68050U 26041L   26159.78918226  .00029352  00000+0  87607-3 0  9999
2 68050  53.1605 344.7629 0001261  85.4404 274.6743 15.34413442 15360
STARLINK-35911          
1 68051U 26041M   26160.16670139 -.00022263  00000+0 -64970-3 0  9996
2 68051  53.1587 344.8125 0001276  99.9697 346.4169 15.34399239  5807
STARLINK-35808          
1 68052U 26041N   26159.80017284  .00029591  00000+0  88263-3 0  9992
2 68052  53.1599 346.2624 0001405  77.2096 282.9064 15.34429524 15346
STARLINK-36919          
1 68053U 26041P   26160.16670139 -.00020381  00000+0 -59364-3 0  9998
2 68053  53.1589 344.8326 0000430  82.5126 352.2025 15.34404483  5714
STARLINK-36924          
1 68054U 26041Q   26159.78708174  .00034241  00000+0  10194-2 0  9991
2 68054  53.1607 344.7784 0001329  82.7445 277.3708 15.34415484 15367
STARLINK-35998          
1 68055U 26041R   26159.81279793  .00022991  00000+0  68928-3 0  9994
2 68055  53.1600 346.3374 0001056 100.7765 259.3357 15.34409572 15346
STARLINK-36845          
1 68056U 26041S   26159.78497527  .00032840  00000+0  97844-3 0  9991
2 68056  53.1597 344.7386 0001270  70.4777 289.6363 15.34412919 15365
STARLINK-36954          
1 68057U 26041T   26159.77234686  .00023919  00000+0  71661-3 0  9992
2 68057  53.1599 344.6652 0001115  80.3103 279.8026 15.34408489 15368
STARLINK-36899          
1 68058U 26041U   26159.78754903  .00033058  00000+0  98460-3 0  9994
2 68058  53.1623 346.1933 0000874  66.1563 293.9531 15.34419957 15347
STARLINK-36917          
1 68059U 26041V   26159.79339097  .00029108  00000+0  86901-3 0  9997
2 68059  53.1607 344.7957 0001261  81.9165 278.1981 15.34409966 15369
STARLINK-36959          
1 68060U 26041W   26159.82906975  .00025178  00000+0  75353-3 0  9990
2 68060  53.1605 344.3128 0001314  73.2581 286.8566 15.34412282 15371
STARLINK-36915          
1 68061U 26041X   26159.80802458  .00024586  00000+0  73601-3 0  9996
2 68061  53.1593 344.1700 0001037  89.4044 270.7078 15.34416612 15378
STARLINK-36952          
1 68062U 26041Y   26159.78076483  .00030498  00000+0  90973-3 0  9995
2 68062  53.1611 344.7254 0001478  70.5858 289.5304 15.34412435 15361
STARLINK-37000          
1 68063U 26041Z   26159.79759731  .00026795  00000+0  80106-3 0  9993
2 68063  53.1610 344.8294 0001378  89.5203 270.5957 15.34410751 15362
STARLINK-36996          
1 68064U 26041AA  26159.80381718  .00030290  00000+0  90353-3 0  9992
2 68064  53.1607 344.1455 0001129  85.8750 274.2382 15.34416887 15371
STARLINK-36836          
1 68065U 26041AB  26159.04819558  .00314361  00000+0  10009-1 0  9999
2 68065  53.1605 350.0823 0002289 107.3129 252.8123 15.30764717 15226
STARLINK-36976          
1 68066U 26041AC  26159.81223630  .00028188  00000+0  84190-3 0  9998
2 68066  53.1602 344.2012 0001401  79.0921 281.0239 15.34414007 15375
STARLINK-36929          
1 68067U 26041AD  26159.78287237  .00037475  00000+0  11140-2 0  9991
2 68067  53.1610 344.7433 0001500  79.7530 280.3641 15.34419262 15366
STARLINK-36990          
1 68068U 26041AE  26159.79386229  .00034626  00000+0  10306-2 0  9992
2 68068  53.1606 346.2110 0001237  93.6477 266.4667 15.34418756 15341
STARLINK-36766          
1 68069U 26042A   26160.04910020  .00022536  00000+0  67562-3 0  9990
2 68069  53.1590 113.6026 0001157  86.8253 273.2882 15.34423233 16301
STARLINK-36823          
1 68070U 26042B   26160.15145647  .00014814  00000+0  44864-3 0  9999
2 68070  53.1580 110.6383 0001137  93.4389 266.6744 15.34403778 16357
STARLINK-36970          
1 68071U 26042C   26160.10161676  .00021793  00000+0  65401-3 0  9999
2 68071  53.1575 113.2138 0000994  71.1817 288.9294 15.34412322 16316
STARLINK-36972          
1 68072U 26042D   26160.13308773  .00026959  00000+0  80594-3 0  9993
2 68072  53.1588 112.6892 0001571  89.7218 270.3965 15.34407817 16327
STARLINK-37074          
1 68073U 26042E   26160.14359601  .00061397  00000+0  18093-2 0  9990
2 68073  53.1583 112.7566 0001069 102.1309 257.9813 15.34472178 16320
STARLINK-37045          
1 68074U 26042F   26160.10582334  .00025240  00000+0  75533-3 0  9998
2 68074  53.1581 113.2534 0001570 137.5731 222.5393 15.34413119 16318
STARLINK-37026          
1 68075U 26042G   26160.04700701  .00023719  00000+0  71063-3 0  9995
2 68075  53.1585 113.5922 0002100  55.1928 304.9272 15.34412696 16309
STARLINK-37023          
1 68076U 26042H   26160.09740954  .00010105  00000+0  30984-3 0  9997
2 68076  53.1582 113.1927 0001435 105.0981 255.0180 15.34396558 16315
STARLINK-37036          
1 68077U 26042J   26160.05485654  .00017095  00000+0  51594-3 0  9992
2 68077  53.1605 111.4844 0001096 100.1906 259.9220 15.34400168 16330
